CCSDS_OMM_VERS = 2.0
CREATION_DATE  = 
ORIGINATOR     = 

OBJECT_NAME    = SL-3 R/B
OBJECT_ID      = 1988-032B
CENTER_NAME    = EARTH
REF_FRAME      = TEME
TIME_SYSTEM    = UTC
MEAN_ELEMENT_THEORY = SGP/SGP4

EPOCH          = 2026-05-23T12:03:36.731808
MEAN_MOTION    = 15.20613907
ECCENTRICITY   = .0024787
INCLINATION    = 97.5248
RA_OF_ASC_NODE = 126.5745
ARG_OF_PERICENTER = 337.1228
MEAN_ANOMALY   = 22.8901

EPHEMERIS_TYPE = 0
CLASSIFICATION_TYPE = U
NORAD_CAT_ID   = 19046
ELEMENT_SET_NO = 999
REV_AT_EPOCH   = 6347
BSTAR          = .16008E-3
MEAN_MOTION_DOT = .3466E-4
MEAN_MOTION_DDOT = 0

CCSDS_OMM_VERS = 2.0
CREATION_DATE  = 
ORIGINATOR     = 

OBJECT_NAME    = SL-16 R/B
OBJECT_ID      = 1988-039B
CENTER_NAME    = EARTH
REF_FRAME      = TEME
TIME_SYSTEM    = UTC
MEAN_ELEMENT_THEORY = SGP/SGP4

EPOCH          = 2026-05-23T12:42:33.259968
MEAN_MOTION    = 14.19626535
ECCENTRICITY   = .0023486
INCLINATION    = 71.0149
RA_OF_ASC_NODE = 270.2955
ARG_OF_PERICENTER = 228.9612
MEAN_ANOMALY   = 130.9483

EPHEMERIS_TYPE = 0
CLASSIFICATION_TYPE = U
NORAD_CAT_ID   = 19120
ELEMENT_SET_NO = 999
REV_AT_EPOCH   = 96900
BSTAR          = .85284E-4
MEAN_MOTION_DOT = .132E-5
MEAN_MOTION_DDOT = 0

CCSDS_OMM_VERS = 2.0
CREATION_DATE  = 
ORIGINATOR     = 

OBJECT_NAME    = COSMOS 1953
OBJECT_ID      = 1988-050A
CENTER_NAME    = EARTH
REF_FRAME      = TEME
TIME_SYSTEM    = UTC
MEAN_ELEMENT_THEORY = SGP/SGP4

EPOCH          = 2026-05-23T08:36:47.454048
MEAN_MOTION    = 15.29571520
ECCENTRICITY   = .0009464
INCLINATION    = 82.5071
RA_OF_ASC_NODE = 83.0604
ARG_OF_PERICENTER = 210.2524
MEAN_ANOMALY   = 149.8171

EPHEMERIS_TYPE = 0
CLASSIFICATION_TYPE = U
NORAD_CAT_ID   = 19210
ELEMENT_SET_NO = 999
REV_AT_EPOCH   = 4919
BSTAR          = .20344E-3
MEAN_MOTION_DOT = .5869E-4
MEAN_MOTION_DDOT = 0

CCSDS_OMM_VERS = 2.0
CREATION_DATE  = 
ORIGINATOR     = 

OBJECT_NAME    = SL-8 R/B
OBJECT_ID      = 1988-053B
CENTER_NAME    = EARTH
REF_FRAME      = TEME
TIME_SYSTEM    = UTC
MEAN_ELEMENT_THEORY = SGP/SGP4

EPOCH          = 2026-05-23T12:48:56.913984
MEAN_MOTION    = 14.38954138
ECCENTRICITY   = .0019585
INCLINATION    = 74.0473
RA_OF_ASC_NODE = 334.5039
ARG_OF_PERICENTER = 138.5075
MEAN_ANOMALY   = 284.5253

EPHEMERIS_TYPE = 0
CLASSIFICATION_TYPE = U
NORAD_CAT_ID   = 19257
ELEMENT_SET_NO = 999
REV_AT_EPOCH   = 98736
BSTAR          = .6973E-4
MEAN_MOTION_DOT = .189E-5
MEAN_MOTION_DDOT = 0

CCSDS_OMM_VERS = 2.0
CREATION_DATE  = 
ORIGINATOR     = 

OBJECT_NAME    = COSMOS 1975
OBJECT_ID      = 1988-093A
CENTER_NAME    = EARTH
REF_FRAME      = TEME
TIME_SYSTEM    = UTC
MEAN_ELEMENT_THEORY = SGP/SGP4

EPOCH          = 2026-05-23T11:37:20.693856
MEAN_MOTION    = 15.28962506
ECCENTRICITY   = .0009303
INCLINATION    = 82.5206
RA_OF_ASC_NODE = 42.5410
ARG_OF_PERICENTER = 267.0789
MEAN_ANOMALY   = 92.9386

EPHEMERIS_TYPE = 0
CLASSIFICATION_TYPE = U
NORAD_CAT_ID   = 19573
ELEMENT_SET_NO = 999
REV_AT_EPOCH   = 3083
BSTAR          = .15969E-3
MEAN_MOTION_DOT = .4529E-4
MEAN_MOTION_DDOT = 0

CCSDS_OMM_VERS = 2.0
CREATION_DATE  = 
ORIGINATOR     = 

OBJECT_NAME    = SL-14 R/B
OBJECT_ID      = 1988-093B
CENTER_NAME    = EARTH
REF_FRAME      = TEME
TIME_SYSTEM    = UTC
MEAN_ELEMENT_THEORY = SGP/SGP4

EPOCH          = 2026-05-23T13:18:29.468736
MEAN_MOTION    = 14.85719549
ECCENTRICITY   = .0021483
INCLINATION    = 82.5300
RA_OF_ASC_NODE = 331.7744
ARG_OF_PERICENTER = 146.8151
MEAN_ANOMALY   = 267.5748

EPHEMERIS_TYPE = 0
CLASSIFICATION_TYPE = U
NORAD_CAT_ID   = 19574
ELEMENT_SET_NO = 999
REV_AT_EPOCH   = 1213
BSTAR          = .32517E-4
MEAN_MOTION_DOT = .308E-5
MEAN_MOTION_DDOT = 0

CCSDS_OMM_VERS = 2.0
CREATION_DATE  = 
ORIGINATOR     = 

OBJECT_NAME    = SL-16 R/B
OBJECT_ID      = 1988-102B
CENTER_NAME    = EARTH
REF_FRAME      = TEME
TIME_SYSTEM    = UTC
MEAN_ELEMENT_THEORY = SGP/SGP4

EPOCH          = 2026-05-23T06:47:49.475328
MEAN_MOTION    = 14.16160471
ECCENTRICITY   = .0016377
INCLINATION    = 71.0000
RA_OF_ASC_NODE = 354.5425
ARG_OF_PERICENTER = 258.5884
MEAN_ANOMALY   = 101.3400

EPHEMERIS_TYPE = 0
CLASSIFICATION_TYPE = U
NORAD_CAT_ID   = 19650
ELEMENT_SET_NO = 999
REV_AT_EPOCH   = 93745
BSTAR          = -.1889E-5
MEAN_MOTION_DOT = -.52E-6
MEAN_MOTION_DDOT = 0

CCSDS_OMM_VERS = 2.0
CREATION_DATE  = 
ORIGINATOR     = 

OBJECT_NAME    = INTERCOSMOS 24
OBJECT_ID      = 1989-080A
CENTER_NAME    = EARTH
REF_FRAME      = TEME
TIME_SYSTEM    = UTC
MEAN_ELEMENT_THEORY = SGP/SGP4

EPOCH          = 2026-05-23T11:21:37.343232
MEAN_MOTION    = 12.59620412
ECCENTRICITY   = .1188041
INCLINATION    = 82.6078
RA_OF_ASC_NODE = 55.7198
ARG_OF_PERICENTER = 119.2093
MEAN_ANOMALY   = 253.3085

EPHEMERIS_TYPE = 0
CLASSIFICATION_TYPE = U
NORAD_CAT_ID   = 20261
ELEMENT_SET_NO = 999
REV_AT_EPOCH   = 67621
BSTAR          = .10465E-3
MEAN_MOTION_DOT = .387E-5
MEAN_MOTION_DDOT = 0

CCSDS_OMM_VERS = 2.0
CREATION_DATE  = 
ORIGINATOR     = 

OBJECT_NAME    = SL-14 R/B
OBJECT_ID      = 1989-080C
CENTER_NAME    = EARTH
REF_FRAME      = TEME
TIME_SYSTEM    = UTC
MEAN_ELEMENT_THEORY = SGP/SGP4

EPOCH          = 2026-05-23T10:38:38.991840
MEAN_MOTION    = 12.50547011
ECCENTRICITY   = .1230219
INCLINATION    = 82.5897
RA_OF_ASC_NODE = 125.2018
ARG_OF_PERICENTER = 13.9845
MEAN_ANOMALY   = 349.2290

EPHEMERIS_TYPE = 0
CLASSIFICATION_TYPE = U
NORAD_CAT_ID   = 20262
ELEMENT_SET_NO = 999
REV_AT_EPOCH   = 66949
BSTAR          = .11806E-3
MEAN_MOTION_DOT = .409E-5
MEAN_MOTION_DDOT = 0

CCSDS_OMM_VERS = 2.0
CREATION_DATE  = 
ORIGINATOR     = 

OBJECT_NAME    = DELTA 1 R/B
OBJECT_ID      = 1989-089B
CENTER_NAME    = EARTH
REF_FRAME      = TEME
TIME_SYSTEM    = UTC
MEAN_ELEMENT_THEORY = SGP/SGP4

EPOCH          = 2026-05-23T12:38:35.973600
MEAN_MOTION    = 14.50712035
ECCENTRICITY   = .0067423
INCLINATION    = 97.0646
RA_OF_ASC_NODE = 339.0295
ARG_OF_PERICENTER = 245.5642
MEAN_ANOMALY   = 113.8512

EPHEMERIS_TYPE = 0
CLASSIFICATION_TYPE = U
NORAD_CAT_ID   = 20323
ELEMENT_SET_NO = 999
REV_AT_EPOCH   = 90658
BSTAR          = .65556E-4
MEAN_MOTION_DOT = .229E-5
MEAN_MOTION_DDOT = 0

CCSDS_OMM_VERS = 2.0
CREATION_DATE  = 
ORIGINATOR     = 

OBJECT_NAME    = ARIANE 40 R/B
OBJECT_ID      = 1990-005H
CENTER_NAME    = EARTH
REF_FRAME      = TEME
TIME_SYSTEM    = UTC
MEAN_ELEMENT_THEORY = SGP/SGP4

EPOCH          = 2026-05-23T10:41:50.600256
MEAN_MOTION    = 14.39912077
ECCENTRICITY   = .0009614
INCLINATION    = 98.2971
RA_OF_ASC_NODE = 201.8293
ARG_OF_PERICENTER = 347.5011
MEAN_ANOMALY   = 12.5938

EPHEMERIS_TYPE = 0
CLASSIFICATION_TYPE = U
NORAD_CAT_ID   = 20443
ELEMENT_SET_NO = 999
REV_AT_EPOCH   = 90356
BSTAR          = .64503E-4
MEAN_MOTION_DOT = .161E-5
MEAN_MOTION_DDOT = 0

CCSDS_OMM_VERS = 2.0
CREATION_DATE  = 
ORIGINATOR     = 

OBJECT_NAME    = DELTA 2 R/B(1)
OBJECT_ID      = 1990-008B
CENTER_NAME    = EARTH
REF_FRAME      = TEME
TIME_SYSTEM    = UTC
MEAN_ELEMENT_THEORY = SGP/SGP4

EPOCH          = 2026-05-23T09:43:32.982240
MEAN_MOTION    = 15.64985655
ECCENTRICITY   = .007136
INCLINATION    = 35.6024
RA_OF_ASC_NODE = 40.9670
ARG_OF_PERICENTER = 242.2251
MEAN_ANOMALY   = 117.1238

EPHEMERIS_TYPE = 0
CLASSIFICATION_TYPE = U
NORAD_CAT_ID   = 20453
ELEMENT_SET_NO = 999
REV_AT_EPOCH   = 93781
BSTAR          = .42804E-3
MEAN_MOTION_DOT = .50102E-3
MEAN_MOTION_DDOT = 0

