SL-3 R/B                
1 19046U 88032B   26143.50250847  .00003466  00000+0  16008-3 0  9994
2 19046  97.5248 126.5745 0024787 337.1228  22.8901 15.20613907 63477
SL-16 R/B               
1 19120U 88039B   26143.52955162  .00000132  00000+0  85284-4 0  9998
2 19120  71.0149 270.2955 0023486 228.9612 130.9483 14.19626535969004
COSMOS 1953             
1 19210U 88050A   26143.35888257  .00005869  00000+0  20344-3 0  9999
2 19210  82.5071  83.0604 0009464 210.2524 149.8171 15.29571520 49199
SL-8 R/B                
1 19257U 88053B   26143.53399206  .00000189  00000+0  69730-4 0  9997
2 19257  74.0473 334.5039 0019585 138.5075 284.5253 14.38954138987363
COSMOS 1975             
1 19573U 88093A   26143.48426729  .00004529  00000+0  15969-3 0  9993
2 19573  82.5206  42.5410 0009303 267.0789  92.9386 15.28962506 30835
SL-14 R/B               
1 19574U 88093B   26143.55450774  .00000308  00000+0  32517-4 0  9999
2 19574  82.5300 331.7744 0021483 146.8151 267.5748 14.85719549 12138
SL-16 R/B               
1 19650U 88102B   26143.28321152 -.00000052  00000+0 -18890-5 0  9999
2 19650  71.0000 354.5425 0016376 258.5884 101.3400 14.16160471937450
INTERCOSMOS 24          
1 20261U 89080A   26143.47334888  .00000387  00000+0  10465-3 0  9993
2 20261  82.6078  55.7198 1188041 119.2093 253.3085 12.59620412676217
SL-14 R/B               
1 20262U 89080C   26143.44350685  .00000409  00000+0  11806-3 0  9999
2 20262  82.5897 125.2018 1230219  13.9845 349.2290 12.50547011669499
DELTA 1 R/B             
1 20323U 89089B   26143.52680525  .00000229  00000+0  65556-4 0  9996
2 20323  97.0646 339.0295 0067423 245.5642 113.8512 14.50712035906582
ARIANE 40 R/B           
1 20443U 90005H   26143.44572454  .00000161  00000+0  64503-4 0  9997
2 20443  98.2971 201.8293 0009614 347.5011  12.5938 14.39912077903561
DELTA 2 R/B(1)          
1 20453U 90008B   26143.40524285  .00050102  00000+0  42804-3 0  9995
2 20453  35.6024  40.9670 0071360 242.2251 117.1238 15.64985655937812
